{"type": "FeatureCollection", "features": [ {"type": "Feature", "properties": {"norad_id": 57401, "name": "TIANMU-1 09", "group": "weather", "lat": -29.95937019643476, "lon": 49.342144329902105, "alt_km": 487.0366005250571, "timestamp": "2025-12-22T04:03:38.804236+00:00", "meta": {"OBJECT_NAME": "TIANMU-1 09", "OBJECT_ID": "2023-101C", "EPOCH": "2025-12-21T20:20:07.190880", "MEAN_MOTION": 15.28206265, "ECCENTRICITY": 0.0006431, "INCLINATION": 97.2807, "RA_OF_ASC_NODE": 44.8014, "ARG_OF_PERICENTER": 58.8746, "MEAN_ANOMALY": 301.3124, "EPHEMERIS_TYPE": 0, "CLASSIFICATION_TYPE": "U", "NORAD_CAT_ID": 57401, "ELEMENT_SET_NO": 999, "REV_AT_EPOCH": 13454, "BSTAR": 0.00022491, "MEAN_MOTION_DOT": 6.113e-05, "MEAN_MOTION_DDOT": 0}, "tle": {"line1": "1 57401U 23101C   25355.84730545  .00006113  00000+0  22491-3 0  9991", "line2": "2 57401  97.2807  44.8014 0006431  58.8746 301.3124 15.28206265134543"}}, "geometry": {"type": "Point", "coordinates": [49.342144329902105, -29.95937019643476]}}, {"type": "Feature", "properties": {"norad_id": 57402, "name": "TIANMU-1 10", "group": "weather", "lat": 37.8554033364086, "lon": -128.31494330277454, "alt_km": 478.0884048920707, "timestamp": "2025-12-22T04:03:38.804272+00:00", "meta": {"OBJECT_NAME": "TIANMU-1 10", "OBJECT_ID": "2023-101D", "EPOCH": "2025-12-21T19:35:10.000608", "MEAN_MOTION": 15.28197488, "ECCENTRICITY": 0.0008151, "INCLINATION": 97.2887, "RA_OF_ASC_NODE": 45.6304, "ARG_OF_PERICENTER": 57.0608, "MEAN_ANOMALY": 303.1414, "EPHEMERIS_TYPE": 0, "CLASSIFICATION_TYPE": "U", "NORAD_CAT_ID": 57402, "ELEMENT_SET_NO": 999, "REV_AT_EPOCH": 13453, "BSTAR": 0.00023221, "MEAN_MOTION_DOT": 6.314e-05, "MEAN_MOTION_DDOT": 0}, "tle": {"line1": "1 57402U 23101D   25355.81608797  .00006314  00000+0  23221-3 0  9997", "line2": "2 57402  97.2887  45.6304 0008151  57.0608 303.1414 15.28197488134539"}}, "geometry": {"type": "Point", "coordinates": [-128.31494330277454, 37.8554033364086]}}, {"type": "Feature", "properties": {"norad_id": 57490, "name": "FENGYUN 3F", "group": "weather", "lat": -26.839690775553724, "lon": 68.75750893202185, "alt_km": 831.8083780661882, "timestamp": "2025-12-22T04:03:38.804293+00:00", "meta": {"OBJECT_NAME": "FENGYUN 3F", "OBJECT_ID": "2023-111A", "EPOCH": "2025-12-21T19:43:56.714016", "MEAN_MOTION": 14.19895824, "ECCENTRICITY": 7.78e-05, "INCLINATION": 98.7075, "RA_OF_ASC_NODE": 63.9686, "ARG_OF_PERICENTER": 114.4567, "MEAN_ANOMALY": 245.669, "EPHEMERIS_TYPE": 0, "CLASSIFICATION_TYPE": "U", "NORAD_CAT_ID": 57490, "ELEMENT_SET_NO": 999, "REV_AT_EPOCH": 12369, "BSTAR": 5.5378e-05, "MEAN_MOTION_DOT": 7.4e-07, "MEAN_MOTION_DDOT": 0}, "tle": {"line1": "1 57490U 23111A   25355.82218419  .00000074  00000+0  55378-4 0  9990", "line2": "2 57490  98.7075  63.9686 0000778 114.4567 245.6690 14.19895824123695"}}, "geometry": {"type": "Point", "coordinates": [68.75750893202185, -26.839690775553724]}}, {"type": "Feature", "properties": {"norad_id": 58584, "name": "ARKTIKA-M 2", "group": "weather", "lat": 50.1775661918114, "lon": -43.43597986068524, "alt_km": 26952.369358265536, "timestamp": "2025-12-22T04:03:38.804313+00:00", "meta": {"OBJECT_NAME": "ARKTIKA-M 2", "OBJECT_ID": "2023-198A", "EPOCH": "2025-12-20T07:20:06.590112", "MEAN_MOTION": 2.00602824, "ECCENTRICITY": 0.68654675, "INCLINATION": 63.225, "RA_OF_ASC_NODE": 174.0676, "ARG_OF_PERICENTER": 268.0739, "MEAN_ANOMALY": 18.8406, "EPHEMERIS_TYPE": 0, "CLASSIFICATION_TYPE": "U", "NORAD_CAT_ID": 58584, "ELEMENT_SET_NO": 999, "REV_AT_EPOCH": 1473, "BSTAR": 0, "MEAN_MOTION_DOT": 2.01e-06, "MEAN_MOTION_DDOT": 0}, "tle": {"line1": "1 58584U 23198A   25354.30563183  .00000201  00000+0  00000+0 0  9992", "line2": "2 58584  63.2250 174.0676 6865467 268.0739  18.8406  2.00602824 14734"}}, "geometry": {"type": "Point", "coordinates": [-43.43597986068524, 50.1775661918114]}}, {"type": "Feature", "properties": {"norad_id": 58645, "name": "TIANMU-1 11", "group": "weather", "lat": -22.394482103053733, "lon": -167.42598415342903, "alt_km": 495.2147298577247, "timestamp": "2025-12-22T04:03:38.804332+00:00", "meta": {"OBJECT_NAME": "TIANMU-1 11", "OBJECT_ID": "2023-205A", "EPOCH": "2025-12-21T19:17:57.411744", "MEAN_MOTION": 15.24700302, "ECCENTRICITY": 0.0007525, "INCLINATION": 97.3594, "RA_OF_ASC_NODE": 15.2682, "ARG_OF_PERICENTER": 271.7192, "MEAN_ANOMALY": 88.3184, "EPHEMERIS_TYPE": 0, "CLASSIFICATION_TYPE": "U", "NORAD_CAT_ID": 58645, "ELEMENT_SET_NO": 999, "REV_AT_EPOCH": 11047, "BSTAR": 0.00021166, "MEAN_MOTION_DOT": 5.167e-05, "MEAN_MOTION_DDOT": 0}, "tle": {"line1": "1 58645U 23205A   25355.80413671  .00005167  00000+0  21166-3 0  9997", "line2": "2 58645  97.3594  15.2682 0007525 271.7192  88.3184 15.24700302110478"}}, "geometry": {"type": "Point", "coordinates": [-167.42598415342903, -22.394482103053733]}}, {"type": "Feature", "properties": {"norad_id": 58646, "name": "TIANMU-1 12", "group": "weather", "lat": 50.211390188423444, "lon": 6.502774901256708, "alt_km": 491.2932489167224, "timestamp": "2025-12-22T04:03:38.804348+00:00", "meta": {"OBJECT_NAME": "TIANMU-1 12", "OBJECT_ID": "2023-205B", "EPOCH": "2025-12-21T19:57:45.222624", "MEAN_MOTION": 15.24585997, "ECCENTRICITY": 0.0005836, "INCLINATION": 97.3582, "RA_OF_ASC_NODE": 15.0977, "ARG_OF_PERICENTER": 250.0036, "MEAN_ANOMALY": 110.0574, "EPHEMERIS_TYPE": 0, "CLASSIFICATION_TYPE": "U", "NORAD_CAT_ID": 58646, "ELEMENT_SET_NO": 999, "REV_AT_EPOCH": 11046, "BSTAR": 0.00021063, "MEAN_MOTION_DOT": 5.122e-05, "MEAN_MOTION_DDOT": 0}, "tle": {"line1": "1 58646U 23205B   25355.83177341  .00005122  00000+0  21063-3 0  9999", "line2": "2 58646  97.3582  15.0977 0005836 250.0036 110.0574 15.24585997110467"}}, "geometry": {"type": "Point", "coordinates": [6.502774901256708, 50.211390188423444]}}, {"type": "Feature", "properties": {"norad_id": 58647, "name": "TIANMU-1 13", "group": "weather", "lat": -47.855758133429184, "lon": -172.57856842125935, "alt_km": 494.39633325672094, "timestamp": "2025-12-22T04:03:38.804364+00:00", "meta": {"OBJECT_NAME": "TIANMU-1 13", "OBJECT_ID": "2023-205C", "EPOCH": "2025-12-21T19:11:10.986144", "MEAN_MOTION": 15.24628805, "ECCENTRICITY": 0.000638, "INCLINATION": 97.3609, "RA_OF_ASC_NODE": 15.2708, "ARG_OF_PERICENTER": 226.9891, "MEAN_ANOMALY": 133.0813, "EPHEMERIS_TYPE": 0, "CLASSIFICATION_TYPE": "U", "NORAD_CAT_ID": 58647, "ELEMENT_SET_NO": 999, "REV_AT_EPOCH": 11045, "BSTAR": 0.000217, "MEAN_MOTION_DOT": 5.287e-05, "MEAN_MOTION_DDOT": 0}, "tle": {"line1": "1 58647U 23205C   25355.79943271  .00005287  00000+0  21700-3 0  9998", "line2": "2 58647  97.3609  15.2708 0006380 226.9891 133.0813 15.24628805110454"}}, "geometry": {"type": "Point", "coordinates": [-172.57856842125935, -47.855758133429184]}}, {"type": "Feature", "properties": {"norad_id": 58648, "name": "TIANMU-1 14", "group": "weather", "lat": -40.8359171992512, "lon": 21.382966614870565, "alt_km": 498.29315583267817, "timestamp": "2025-12-22T04:03:38.804380+00:00", "meta": {"OBJECT_NAME": "TIANMU-1 14", "OBJECT_ID": "2023-205D", "EPOCH": "2025-12-21T20:21:55.928736", "MEAN_MOTION": 15.24612471, "ECCENTRICITY": 0.0007114, "INCLINATION": 97.3541, "RA_OF_ASC_NODE": 14.6593, "ARG_OF_PERICENTER": 233.1003, "MEAN_ANOMALY": 126.9583, "EPHEMERIS_TYPE": 0, "CLASSIFICATION_TYPE": "U", "NORAD_CAT_ID": 58648, "ELEMENT_SET_NO": 999, "REV_AT_EPOCH": 11046, "BSTAR": 0.00020896, "MEAN_MOTION_DOT": 5.086e-05, "MEAN_MOTION_DDOT": 0}, "tle": {"line1": "1 58648U 23205D   25355.84856399  .00005086  00000+0  20896-3 0  9991", "line2": "2 58648  97.3541  14.6593 0007114 233.1003 126.9583 15.24612471110464"}}, "geometry": {"type": "Point", "coordinates": [21.382966614870565, -40.8359171992512]}}, {"type": "Feature", "properties": {"norad_id": 58660, "name": "TIANMU-1 19", "group": "weather", "lat": -31.85777449453972, "lon": 111.84641949811005, "alt_km": 489.3009904354858, "timestamp": "2025-12-22T04:03:38.804400+00:00", "meta": {"OBJECT_NAME": "TIANMU-1 19", "OBJECT_ID": "2023-208A", "EPOCH": "2025-12-21T20:20:34.436256", "MEAN_MOTION": 15.28002982, "ECCENTRICITY": 0.0004582, "INCLINATION": 97.4395, "RA_OF_ASC_NODE": 106.8678, "ARG_OF_PERICENTER": 213.0854, "MEAN_ANOMALY": 147.0099, "EPHEMERIS_TYPE": 0, "CLASSIFICATION_TYPE": "U", "NORAD_CAT_ID": 58660, "ELEMENT_SET_NO": 999, "REV_AT_EPOCH": 11021, "BSTAR": 0.00030219, "MEAN_MOTION_DOT": 8.184e-05, "MEAN_MOTION_DDOT": 0}, "tle": {"line1": "1 58660U 23208A   25355.84762079  .00008184  00000+0  30219-3 0  9991", "line2": "2 58660  97.4395 106.8678 0004582 213.0854 147.0099 15.28002982110214"}}, "geometry": {"type": "Point", "coordinates": [111.84641949811005, -31.85777449453972]}}, {"type": "Feature", "properties": {"norad_id": 58661, "name": "TIANMU-1 20", "group": "weather", "lat": 79.39745415335332, "lon": 63.421164470538166, "alt_km": 474.5484317009232, "timestamp": "2025-12-22T04:03:38.804416+00:00", "meta": {"OBJECT_NAME": "TIANMU-1 20", "OBJECT_ID": "2023-208B", "EPOCH": "2025-12-21T19:50:56.160096", "MEAN_MOTION": 15.29192286, "ECCENTRICITY": 0.0006624, "INCLINATION": 97.4333, "RA_OF_ASC_NODE": 107.3037, "ARG_OF_PERICENTER": 227.9478, "MEAN_ANOMALY": 132.1199, "EPHEMERIS_TYPE": 0, "CLASSIFICATION_TYPE": "U", "NORAD_CAT_ID": 58661, "ELEMENT_SET_NO": 999, "REV_AT_EPOCH": 11028, "BSTAR": 0.00027111, "MEAN_MOTION_DOT": 7.609e-05, "MEAN_MOTION_DDOT": 0}, "tle": {"line1": "1 58661U 23208B   25355.82703889  .00007609  00000+0  27111-3 0  9992", "line2": "2 58661  97.4333 107.3037 0006624 227.9478 132.1199 15.29192286110288"}}, "geometry": {"type": "Point", "coordinates": [63.421164470538166, 79.39745415335332]}}]}